0 INTELSAT 501
1 12474U 81050A   13283.00783918 -.00000246  00000-0  10000-3 0  5886
2 12474 015.0702 006.4232 0009011 145.8099 214.2531 00.98857425 91959
0 INTELSAT 501
1 12474U 81050A   13287.05392320 -.00000255  00000-0  10000-3 0  5899
2 12474 015.0721 006.3812 0009209 145.1480 214.9032 00.98856557 91991
0 INTELSAT 501
1 12474U 81050A   13292.11160701 -.00000177  00000-0  10000-3 0  5903
2 12474 015.0746 006.3292 0009198 144.5836 215.4616 00.98854773 92044
0 INTELSAT 501
1 12474U 81050A   13295.14628142 -.00000104  00000-0  10000-3 0  5918
2 12474 015.0761 006.2972 0009312 143.8197 216.2332 00.98853791 92071
